{
  "type": "FeatureCollection",
  "features": [
    {
      "type": "Feature",
      "properties": {
        "norad_id": 36744,
        "name": "COMS 1",
        "group": "weather",
        "lat": -4.1111798310161225,
        "lon": 7.713842236306865,
        "alt_km": 35786.21374488576,
        "timestamp": "2025-12-23T09:49:06.719100+00:00",
        "meta_object_name": "COMS 1",
        "meta_object_id": "2010-032A",
        "meta_epoch": "2025-12-22T17:11:53.751840",
        "meta_mean_motion": 1.00271172,
        "meta_eccentricity": 7.664e-05,
        "meta_inclination": 4.3629,
        "meta_ra_of_asc_node": 77.8859,
        "meta_arg_of_pericenter": 212.0296,
        "meta_mean_anomaly": 187.7539,
        "meta_ephemeris_type": 0,
        "meta_classification_type": "U",
        "meta_norad_cat_id": 36744,
        "meta_element_set_no": 999,
        "meta_rev_at_epoch": 4932,
        "meta_bstar": 0,
        "meta_mean_motion_dot": -3.25e-06,
        "meta_mean_motion_ddot": 0,
        "tle_line1": "1 36744U 10032A   25356.71659435 -.00000325  00000+0  00000+0 0  9990",
        "tle_line2": "2 36744   4.3629  77.8859 0000766 212.0296 187.7539  1.00271172 49324"
      },
      "geometry": {
        "type": "Point",
        "coordinates": [
          7.713842236306865,
          -4.1111798310161225
        ]
      }
    },
    {
      "type": "Feature",
      "properties": {
        "norad_id": 37214,
        "name": "FENGYUN 3B",
        "group": "weather",
        "lat": -13.576382231184335,
        "lon": 39.65077151516467,
        "alt_km": 832.7730395736744,
        "timestamp": "2025-12-23T09:49:06.719113+00:00",
        "meta_object_name": "FENGYUN 3B",
        "meta_object_id": "2010-059A",
        "meta_epoch": "2025-12-23T00:14:03.158592",
        "meta_mean_motion": 14.147909,
        "meta_eccentricity": 0.00215791,
        "meta_inclination": 98.989,
        "meta_ra_of_asc_node": 37.0581,
        "meta_arg_of_pericenter": 328.476,
        "meta_mean_anomaly": 144.9709,
        "meta_ephemeris_type": 0,
        "meta_classification_type": "U",
        "meta_norad_cat_id": 37214,
        "meta_element_set_no": 999,
        "meta_rev_at_epoch": 78251,
        "meta_bstar": -0.00011899781,
        "meta_mean_motion_dot": -2.75e-06,
        "meta_mean_motion_ddot": 0,
        "tle_line1": "1 37214U 10059A   25357.00975878 -.00000275  00000+0 -11900-3 0  9997",
        "tle_line2": "2 37214  98.9890  37.0581 0021579 328.4760 144.9709 14.14790900782512"
      },
      "geometry": {
        "type": "Point",
        "coordinates": [
          39.65077151516467,
          -13.576382231184335
        ]
      }
    },
    {
      "type": "Feature",
      "properties": {
        "norad_id": 37849,
        "name": "SUOMI NPP",
        "group": "weather",
        "lat": 7.887209961261713,
        "lon": -66.57152426957651,
        "alt_km": 828.8995061243222,
        "timestamp": "2025-12-23T09:49:06.719124+00:00",
        "meta_object_name": "SUOMI NPP",
        "meta_object_id": "2011-061A",
        "meta_epoch": "2025-12-22T15:10:21.732672",
        "meta_mean_motion": 14.19516903,
        "meta_eccentricity": 0.00024883,
        "meta_inclination": 98.7787,
        "meta_ra_of_asc_node": 293.8852,
        "meta_arg_of_pericenter": 103.0781,
        "meta_mean_anomaly": 257.0673,
        "meta_ephemeris_type": 0,
        "meta_classification_type": "U",
        "meta_norad_cat_id": 37849,
        "meta_element_set_no": 999,
        "meta_rev_at_epoch": 73339,
        "meta_bstar": 6.3406935e-05,
        "meta_mean_motion_dot": 8.9e-07,
        "meta_mean_motion_ddot": 0,
        "tle_line1": "1 37849U 11061A   25356.63219598  .00000089  00000+0  63407-4 0  9994",
        "tle_line2": "2 37849  98.7787 293.8852 0002488 103.0781 257.0673 14.19516903733392"
      },
      "geometry": {
        "type": "Point",
        "coordinates": [
          -66.57152426957651,
          7.887209961261713
        ]
      }
    },
    {
      "type": "Feature",
      "properties": {
        "norad_id": 38552,
        "name": "METEOSAT-10 (MSG-3)",
        "group": "weather",
        "lat": 0.12472365398051385,
        "lon": -120.1831570458458,
        "alt_km": 35784.48436030553,
        "timestamp": "2025-12-23T09:49:06.719136+00:00",
        "meta_object_name": "METEOSAT-10 (MSG-3)",
        "meta_object_id": "2012-035B",
        "meta_epoch": "2025-12-22T08:01:52.620384",
        "meta_mean_motion": 1.00276829,
        "meta_eccentricity": 7.196e-05,
        "meta_inclination": 4.2497,
        "meta_ra_of_asc_node": 61.6967,
        "meta_arg_of_pericenter": 266.0404,
        "meta_mean_anomaly": 244.1977,
        "meta_ephemeris_type": 0,
        "meta_classification_type": "U",
        "meta_norad_cat_id": 38552,
        "meta_element_set_no": 999,
        "meta_rev_at_epoch": 4908,
        "meta_bstar": 0,
        "meta_mean_motion_dot": 1.6e-07,
        "meta_mean_motion_ddot": 0,
        "tle_line1": "1 38552U 12035B   25356.33463681  .00000016  00000+0  00000+0 0  9994",
        "tle_line2": "2 38552   4.2497  61.6967 0000719 266.0404 244.1977  1.00276829 49085"
      },
      "geometry": {
        "type": "Point",
        "coordinates": [
          -120.1831570458458,
          0.12472365398051385
        ]
      }
    },
    {
      "type": "Feature",
      "properties": {
        "norad_id": 38771,
        "name": "METOP-B",
        "group": "weather",
        "lat": -65.59252663921158,
        "lon": 66.85489092227802,
        "alt_km": 830.0765346627195,
        "timestamp": "2025-12-23T09:49:06.719147+00:00",
        "meta_object_name": "METOP-B",
        "meta_object_id": "2012-049A",
        "meta_epoch": "2025-12-22T22:18:28.812096",
        "meta_mean_motion": 14.21412182,
        "meta_eccentricity": 0.00032233,
        "meta_inclination": 98.6784,
        "meta_ra_of_asc_node": 46.7148,
        "meta_arg_of_pericenter": 122.7046,
        "meta_mean_anomaly": 237.4442,
        "meta_ephemeris_type": 0,
        "meta_classification_type": "U",
        "meta_norad_cat_id": 38771,
        "meta_element_set_no": 999,
        "meta_rev_at_epoch": 68822,
        "meta_bstar": 8.7303164e-05,
        "meta_mean_motion_dot": 1.47e-06,
        "meta_mean_motion_ddot": 0,
        "tle_line1": "1 38771U 12049A   25356.92950014  .00000147  00000+0  87303-4 0  9999",
        "tle_line2": "2 38771  98.6784  46.7148 0003223 122.7046 237.4442 14.21412182688220"
      },
      "geometry": {
        "type": "Point",
        "coordinates": [
          66.85489092227802,
          -65.59252663921158
        ]
      }
    },
    {
      "type": "Feature",
      "properties": {
        "norad_id": 39216,
        "name": "INSAT-3D",
        "group": "weather",
        "lat": -1.427351611436224,
        "lon": 9.014205838426186,
        "alt_km": 35790.24188432744,
        "timestamp": "2025-12-23T09:49:06.719159+00:00",
        "meta_object_name": "INSAT-3D",
        "meta_object_id": "2013-038B",
        "meta_epoch": "2025-12-22T18:54:58.881600",
        "meta_mean_motion": 1.00275767,
        "meta_eccentricity": 0.00018373,
        "meta_inclination": 1.4692,
        "meta_ra_of_asc_node": 84.8853,
        "meta_arg_of_pericenter": 153.7134,
        "meta_mean_anomaly": 266.2463,
        "meta_ephemeris_type": 0,
        "meta_classification_type": "U",
        "meta_norad_cat_id": 39216,
        "meta_element_set_no": 999,
        "meta_rev_at_epoch": 4531,
        "meta_bstar": 0,
        "meta_mean_motion_dot": -3.18e-06,
        "meta_mean_motion_ddot": 0,
        "tle_line1": "1 39216U 13038B   25356.78818150 -.00000318  00000+0  00000+0 0  9996",
        "tle_line2": "2 39216   1.4692  84.8853 0001837 153.7134 266.2463  1.00275767 45311"
      },
      "geometry": {
        "type": "Point",
        "coordinates": [
          9.014205838426186,
          -1.427351611436224
        ]
      }
    },
    {
      "type": "Feature",
      "properties": {
        "norad_id": 39260,
        "name": "FENGYUN 3C",
        "group": "weather",
        "lat": -38.86633455599902,
        "lon": -18.528350011717386,
        "alt_km": 856.0972253360969,
        "timestamp": "2025-12-23T09:49:06.719171+00:00",
        "meta_object_name": "FENGYUN 3C",
        "meta_object_id": "2013-052A",
        "meta_epoch": "2025-12-22T22:07:51.816000",
        "meta_mean_motion": 14.15699239,
        "meta_eccentricity": 0.00148404,
        "meta_inclination": 98.4775,
        "meta_ra_of_asc_node": 334.1048,
        "meta_arg_of_pericenter": 166.5632,
        "meta_mean_anomaly": 193.5941,
        "meta_ephemeris_type": 0,
        "meta_classification_type": "U",
        "meta_norad_cat_id": 39260,
        "meta_element_set_no": 999,
        "meta_rev_at_epoch": 63362,
        "meta_bstar": 7.126546e-05,
        "meta_mean_motion_dot": 9.9e-07,
        "meta_mean_motion_ddot": 0,
        "tle_line1": "1 39260U 13052A   25356.92212750  .00000099  00000+0  71265-4 0  9992",
        "tle_line2": "2 39260  98.4775 334.1048 0014840 166.5632 193.5941 14.15699239633622"
      },
      "geometry": {
        "type": "Point",
        "coordinates": [
          -18.528350011717386,
          -38.86633455599902
        ]
      }
    }
  ]
}